{"type": "FeatureCollection", "features": [ {"type": "Feature", "properties": {"norad_id": 66526, "name": "STARLINK-35932", "group": "last-30-days", "lat": 27.57197597185362, "lon": -146.90533299441137, "alt_km": 411.6302965705481, "timestamp": "2025-12-10T11:33:52.171905+00:00", "meta": {"OBJECT_NAME": "STARLINK-35932", "OBJECT_ID": "2025-265L", "EPOCH": "2025-12-10T04:00:01.998720", "MEAN_MOTION": 15.50603726, "ECCENTRICITY": 0.0001673, "INCLINATION": 42.9996, "RA_OF_ASC_NODE": 69.0194, "ARG_OF_PERICENTER": 276.5331, "MEAN_ANOMALY": 259.2778, "EPHEMERIS_TYPE": 0, "CLASSIFICATION_TYPE": "U", "NORAD_CAT_ID": 66526, "ELEMENT_SET_NO": 999, "REV_AT_EPOCH": 447, "BSTAR": -0.0014046, "MEAN_MOTION_DOT": -0.00081959, "MEAN_MOTION_DDOT": 0}, "tle": {"line1": "1 66526U 25265L   25344.16668980 -.00081959  00000+0 -14046-2 0  9997", "line2": "2 66526  42.9996  69.0194 0001673 276.5331 259.2778 15.50603726  4479"}}, "geometry": {"type": "Point", "coordinates": [-146.90533299441137, 27.57197597185362]}}, {"type": "Feature", "properties": {"norad_id": 66527, "name": "STARLINK-35935", "group": "last-30-days", "lat": 26.480050839402573, "lon": -145.14491004538783, "alt_km": 411.58214093022525, "timestamp": "2025-12-10T11:33:52.171915+00:00", "meta": {"OBJECT_NAME": "STARLINK-35935", "OBJECT_ID": "2025-265M", "EPOCH": "2025-12-10T04:00:01.998720", "MEAN_MOTION": 15.50594072, "ECCENTRICITY": 0.0001485, "INCLINATION": 42.9996, "RA_OF_ASC_NODE": 69.0149, "ARG_OF_PERICENTER": 268.195, "MEAN_ANOMALY": 269.5348, "EPHEMERIS_TYPE": 0, "CLASSIFICATION_TYPE": "U", "NORAD_CAT_ID": 66527, "ELEMENT_SET_NO": 999, "REV_AT_EPOCH": 458, "BSTAR": -0.0011607, "MEAN_MOTION_DOT": -0.00067881, "MEAN_MOTION_DDOT": 0}, "tle": {"line1": "1 66527U 25265M   25344.16668980 -.00067881  00000+0 -11607-2 0  9996", "line2": "2 66527  42.9996  69.0149 0001485 268.1950 269.5348 15.50594072  4587"}}, "geometry": {"type": "Point", "coordinates": [-145.14491004538783, 26.480050839402573]}}, {"type": "Feature", "properties": {"norad_id": 66528, "name": "STARLINK-35928", "group": "last-30-days", "lat": 25.371617181881053, "lon": -143.4244941147902, "alt_km": 411.91746193489325, "timestamp": "2025-12-10T11:33:52.171925+00:00", "meta": {"OBJECT_NAME": "STARLINK-35928", "OBJECT_ID": "2025-265N", "EPOCH": "2025-12-10T04:00:01.998720", "MEAN_MOTION": 15.50535088, "ECCENTRICITY": 0.0001735, "INCLINATION": 42.9998, "RA_OF_ASC_NODE": 69.0109, "ARG_OF_PERICENTER": 274.8457, "MEAN_ANOMALY": 264.8196, "EPHEMERIS_TYPE": 0, "CLASSIFICATION_TYPE": "U", "NORAD_CAT_ID": 66528, "ELEMENT_SET_NO": 999, "REV_AT_EPOCH": 458, "BSTAR": 0.00059329, "MEAN_MOTION_DOT": 0.00034563, "MEAN_MOTION_DDOT": 0}, "tle": {"line1": "1 66528U 25265N   25344.16668980  .00034563  00000+0  59329-3 0  9990", "line2": "2 66528  42.9998  69.0109 0001735 274.8457 264.8196 15.50535088  4581"}}, "geometry": {"type": "Point", "coordinates": [-143.4244941147902, 25.371617181881053]}}, {"type": "Feature", "properties": {"norad_id": 66529, "name": "STARLINK-35933", "group": "last-30-days", "lat": 24.22976036938816, "lon": -141.71758197149023, "alt_km": 411.8498358137995, "timestamp": "2025-12-10T11:33:52.171945+00:00", "meta": {"OBJECT_NAME": "STARLINK-35933", "OBJECT_ID": "2025-265P", "EPOCH": "2025-12-10T04:00:01.998720", "MEAN_MOTION": 15.50562204, "ECCENTRICITY": 0.0001692, "INCLINATION": 42.9998, "RA_OF_ASC_NODE": 69.0052, "ARG_OF_PERICENTER": 263.5168, "MEAN_ANOMALY": 278.0571, "EPHEMERIS_TYPE": 0, "CLASSIFICATION_TYPE": "U", "NORAD_CAT_ID": 66529, "ELEMENT_SET_NO": 999, "REV_AT_EPOCH": 458, "BSTAR": 0.00012449, "MEAN_MOTION_DOT": 6.964e-05, "MEAN_MOTION_DDOT": 0}, "tle": {"line1": "1 66529U 25265P   25344.16668980  .00006964  00000+0  12449-3 0  9997", "line2": "2 66529  42.9998  69.0052 0001692 263.5168 278.0571 15.50562204  4589"}}, "geometry": {"type": "Point", "coordinates": [-141.71758197149023, 24.22976036938816]}}, {"type": "Feature", "properties": {"norad_id": 66530, "name": "STARLINK-35961", "group": "last-30-days", "lat": 23.071379699287238, "lon": -140.04371425900544, "alt_km": 412.2115519919498, "timestamp": "2025-12-10T11:33:52.171956+00:00", "meta": {"OBJECT_NAME": "STARLINK-35961", "OBJECT_ID": "2025-265Q", "EPOCH": "2025-12-10T04:00:01.998720", "MEAN_MOTION": 15.50597862, "ECCENTRICITY": 0.0001637, "INCLINATION": 42.9997, "RA_OF_ASC_NODE": 69.0005, "ARG_OF_PERICENTER": 274.4504, "MEAN_ANOMALY": 269.0337, "EPHEMERIS_TYPE": 0, "CLASSIFICATION_TYPE": "U", "NORAD_CAT_ID": 66530, "ELEMENT_SET_NO": 999, "REV_AT_EPOCH": 458, "BSTAR": -0.0012889, "MEAN_MOTION_DOT": -0.00075283, "MEAN_MOTION_DDOT": 0}, "tle": {"line1": "1 66530U 25265Q   25344.16668980 -.00075283  00000+0 -12889-2 0  9998", "line2": "2 66530  42.9997  69.0005 0001637 274.4504 269.0337 15.50597862  4580"}}, "geometry": {"type": "Point", "coordinates": [-140.04371425900544, 23.071379699287238]}}, {"type": "Feature", "properties": {"norad_id": 66531, "name": "STARLINK-35960", "group": "last-30-days", "lat": 21.90004301979348, "lon": -138.4053620327003, "alt_km": 412.20840619194223, "timestamp": "2025-12-10T11:33:52.171968+00:00", "meta": {"OBJECT_NAME": "STARLINK-35960", "OBJECT_ID": "2025-265R", "EPOCH": "2025-12-10T04:00:01.998720", "MEAN_MOTION": 15.50594204, "ECCENTRICITY": 0.0001459, "INCLINATION": 42.9999, "RA_OF_ASC_NODE": 68.995, "ARG_OF_PERICENTER": 268.4272, "MEAN_ANOMALY": 276.9751, "EPHEMERIS_TYPE": 0, "CLASSIFICATION_TYPE": "U", "NORAD_CAT_ID": 66531, "ELEMENT_SET_NO": 999, "REV_AT_EPOCH": 458, "BSTAR": -0.0011835, "MEAN_MOTION_DOT": -0.00069201, "MEAN_MOTION_DDOT": 0}, "tle": {"line1": "1 66531U 25265R   25344.16668980 -.00069201  00000+0 -11835-2 0  9992", "line2": "2 66531  42.9999  68.9950 0001459 268.4272 276.9751 15.50594204  4581"}}, "geometry": {"type": "Point", "coordinates": [-138.4053620327003, 21.90004301979348]}}, {"type": "Feature", "properties": {"norad_id": 66532, "name": "STARLINK-35914", "group": "last-30-days", "lat": 20.721683074285288, "lon": -136.80464840540384, "alt_km": 412.5385480373807, "timestamp": "2025-12-10T11:33:52.171981+00:00", "meta": {"OBJECT_NAME": "STARLINK-35914", "OBJECT_ID": "2025-265S", "EPOCH": "2025-12-10T04:00:01.998720", "MEAN_MOTION": 15.50539278, "ECCENTRICITY": 0.0001766, "INCLINATION": 42.9998, "RA_OF_ASC_NODE": 68.9912, "ARG_OF_PERICENTER": 273.9739, "MEAN_ANOMALY": 273.3581, "EPHEMERIS_TYPE": 0, "CLASSIFICATION_TYPE": "U", "NORAD_CAT_ID": 66532, "ELEMENT_SET_NO": 999, "REV_AT_EPOCH": 458, "BSTAR": 0.00055717, "MEAN_MOTION_DOT": 0.00032434, "MEAN_MOTION_DDOT": 0}, "tle": {"line1": "1 66532U 25265S   25344.16668980  .00032434  00000+0  55717-3 0  9997", "line2": "2 66532  42.9998  68.9912 0001766 273.9739 273.3581 15.50539278  4581"}}, "geometry": {"type": "Point", "coordinates": [-136.80464840540384, 20.721683074285288]}}, {"type": "Feature", "properties": {"norad_id": 66533, "name": "STARLINK-35707", "group": "last-30-days", "lat": 19.510111512764244, "lon": -135.20679803272597, "alt_km": 412.61734084369346, "timestamp": "2025-12-10T11:33:52.171991+00:00", "meta": {"OBJECT_NAME": "STARLINK-35707", "OBJECT_ID": "2025-265T", "EPOCH": "2025-12-10T04:00:01.998720", "MEAN_MOTION": 15.50601804, "ECCENTRICITY": 0.000165, "INCLINATION": 42.9995, "RA_OF_ASC_NODE": 68.9855, "ARG_OF_PERICENTER": 269.6477, "MEAN_ANOMALY": 279.585, "EPHEMERIS_TYPE": 0, "CLASSIFICATION_TYPE": "U", "NORAD_CAT_ID": 66533, "ELEMENT_SET_NO": 999, "REV_AT_EPOCH": 458, "BSTAR": -0.0013724, "MEAN_MOTION_DOT": -0.000801, "MEAN_MOTION_DDOT": 0}, "tle": {"line1": "1 66533U 25265T   25344.16668980 -.00080100  00000+0 -13724-2 0  9994", "line2": "2 66533  42.9995  68.9855 0001650 269.6477 279.5850 15.50601804  4580"}}, "geometry": {"type": "Point", "coordinates": [-135.20679803272597, 19.510111512764244]}}, {"type": "Feature", "properties": {"norad_id": 66534, "name": "STARLINK-35976", "group": "last-30-days", "lat": 18.30286761036065, "lon": -133.65295278273973, "alt_km": 412.8097573692685, "timestamp": "2025-12-10T11:33:52.172001+00:00", "meta": {"OBJECT_NAME": "STARLINK-35976", "OBJECT_ID": "2025-265U", "EPOCH": "2025-12-10T04:00:01.998720", "MEAN_MOTION": 15.50538118, "ECCENTRICITY": 0.0001779, "INCLINATION": 43, "RA_OF_ASC_NODE": 68.9822, "ARG_OF_PERICENTER": 270.8896, "MEAN_ANOMALY": 280.2793, "EPHEMERIS_TYPE": 0, "CLASSIFICATION_TYPE": "U", "NORAD_CAT_ID": 66534, "ELEMENT_SET_NO": 999, "REV_AT_EPOCH": 458, "BSTAR": 0.00056079, "MEAN_MOTION_DOT": 0.00032647, "MEAN_MOTION_DDOT": 0}, "tle": {"line1": "1 66534U 25265U   25344.16668980  .00032647  00000+0  56079-3 0  9997", "line2": "2 66534  43.0000  68.9822 0001779 270.8896 280.2793 15.50538118  4587"}}, "geometry": {"type": "Point", "coordinates": [-133.65295278273973, 18.30286761036065]}}, {"type": "Feature", "properties": {"norad_id": 66535, "name": "STARLINK-35514", "group": "last-30-days", "lat": 17.066852632690882, "lon": -132.10250857688172, "alt_km": 412.8855499323681, "timestamp": "2025-12-10T11:33:52.172024+00:00", "meta": {"OBJECT_NAME": "STARLINK-35514", "OBJECT_ID": "2025-265V", "EPOCH": "2025-12-10T04:00:01.998720", "MEAN_MOTION": 15.50589622, "ECCENTRICITY": 0.00016, "INCLINATION": 43, "RA_OF_ASC_NODE": 68.9774, "ARG_OF_PERICENTER": 267.5985, "MEAN_ANOMALY": 285.473, "EPHEMERIS_TYPE": 0, "CLASSIFICATION_TYPE": "U", "NORAD_CAT_ID": 66535, "ELEMENT_SET_NO": 999, "REV_AT_EPOCH": 458, "BSTAR": -0.0010533, "MEAN_MOTION_DOT": -0.00061672, "MEAN_MOTION_DDOT": 0}, "tle": {"line1": "1 66535U 25265V   25344.16668980 -.00061672  00000+0 -10533-2 0  9994", "line2": "2 66535  43.0000  68.9774 0001600 267.5985 285.4730 15.50589622  4583"}}, "geometry": {"type": "Point", "coordinates": [-132.10250857688172, 17.066852632690882]}}]}